{
  "norad_id": 59418,
  "name": "STARLINK-31414",
  "history": [
    {
      "epoch": "2026-03-28T21:42:22.383072Z",
      "apogee_km": 484.0685428626548,
      "perigee_km": 482.3792758067766,
      "latitude_deg": 2.768916469740419e-05,
      "longitude_deg": 155.81128811839596,
      "height_km": 483.00850419598765,
      "semi_major_axis_km": 6861.360909334716,
      "eccentricity": 0.0001231,
      "inclination_deg": 43.0049,
      "raan_deg": 307.7227,
      "arg_perigee_deg": 269.4921,
      "mean_anomaly_deg": 90.579,
      "mean_motion_rev_day": 15.27521621
    }
  ]
}