{"fetched_at":"2026-03-29T16:36:15Z","count":15609,"tles":[{"name":"STARLINK-31414","line1":"1 59418U 24064W   26087.90442573  .00014353  00000+0  53101-3 0  9998","line2":"2 59418  43.0049 307.7227 0001231 269.4921  90.5790 15.27521621112160","category":"Starlink"}]}